[Satellite]
VERSION=1.1
NAME=MOLNIYA 3-24
NICKNAME=MOLNIYA 3-24
TLE1=1 15738U 85040A   15051.36762242  .00000003  00000-0  10000-3 0  9992
TLE2=2 15738  64.3997 148.9598 6332027 276.4224  19.8826  2.55631765235552
